{"type": "FeatureCollection", "features": [ {"type": "Feature", "properties": {"norad_id": 34001, "name": "COSMOS 2251 DEB", "group": "cosmos-2251-debris", "lat": 65.52583287750008, "lon": 68.91521916470744, "alt_km": 763.5980067875107, "timestamp": "2025-12-09T07:41:33.604892+00:00", "meta": {"OBJECT_NAME": "COSMOS 2251 DEB", "OBJECT_ID": "1993-036GL", "EPOCH": "2025-12-08T23:08:21.682176", "MEAN_MOTION": 14.37090181, "ECCENTRICITY": 0.00197942, "INCLINATION": 74.0385, "RA_OF_ASC_NODE": 288.5295, "ARG_OF_PERICENTER": 10.3763, "MEAN_ANOMALY": 55.1185, "EPHEMERIS_TYPE": 0, "CLASSIFICATION_TYPE": "U", "NORAD_CAT_ID": 34001, "ELEMENT_SET_NO": 999, "REV_AT_EPOCH": 88092, "BSTAR": 0.00033162134, "MEAN_MOTION_DOT": 9.61e-06, "MEAN_MOTION_DDOT": 0}, "tle": {"line1": "1 34001U 93036GL  25342.96413984  .00000961  00000+0  33162-3 0  9992", "line2": "2 34001  74.0385 288.5295 0019794  10.3763  55.1185 14.37090181880922"}}, "geometry": {"type": "Point", "coordinates": [68.91521916470744, 65.52583287750008]}}, {"type": "Feature", "properties": {"norad_id": 34003, "name": "COSMOS 2251 DEB", "group": "cosmos-2251-debris", "lat": -68.67869175928745, "lon": -116.09624925598968, "alt_km": 1050.3393631927056, "timestamp": "2025-12-09T07:41:33.604902+00:00", "meta": {"OBJECT_NAME": "COSMOS 2251 DEB", "OBJECT_ID": "1993-036GN", "EPOCH": "2025-12-08T07:46:12.371520", "MEAN_MOTION": 13.8411183, "ECCENTRICITY": 0.02740033, "INCLINATION": 74.0787, "RA_OF_ASC_NODE": 292.5761, "ARG_OF_PERICENTER": 45.6277, "MEAN_ANOMALY": 316.6938, "EPHEMERIS_TYPE": 0, "CLASSIFICATION_TYPE": "U", "NORAD_CAT_ID": 34003, "ELEMENT_SET_NO": 999, "REV_AT_EPOCH": 84364, "BSTAR": 0.0031943304, "MEAN_MOTION_DOT": 4.737e-05, "MEAN_MOTION_DDOT": 0}, "tle": {"line1": "1 34003U 93036GN  25342.32375430  .00004737  00000+0  31943-2 0  9996", "line2": "2 34003  74.0787 292.5761 0274003  45.6277 316.6938 13.84111830843645"}}, "geometry": {"type": "Point", "coordinates": [-116.09624925598968, -68.67869175928745]}}, {"type": "Feature", "properties": {"norad_id": 34004, "name": "COSMOS 2251 DEB", "group": "cosmos-2251-debris", "lat": -26.888372316597817, "lon": 147.86666009111053, "alt_km": 747.7257948217239, "timestamp": "2025-12-09T07:41:33.604913+00:00", "meta": {"OBJECT_NAME": "COSMOS 2251 DEB", "OBJECT_ID": "1993-036GP", "EPOCH": "2025-12-08T22:26:54.677184", "MEAN_MOTION": 14.48947508, "ECCENTRICITY": 0.00333445, "INCLINATION": 74.0362, "RA_OF_ASC_NODE": 320.2425, "ARG_OF_PERICENTER": 332.998, "MEAN_ANOMALY": 26.9443, "EPHEMERIS_TYPE": 0, "CLASSIFICATION_TYPE": "U", "NORAD_CAT_ID": 34004, "ELEMENT_SET_NO": 999, "REV_AT_EPOCH": 87975, "BSTAR": 0.0017817247, "MEAN_MOTION_DOT": 6.776e-05, "MEAN_MOTION_DDOT": 0}, "tle": {"line1": "1 34004U 93036GP  25342.93535506  .00006776  00000+0  17817-2 0  9995", "line2": "2 34004  74.0362 320.2425 0033344 332.9980  26.9443 14.48947508879758"}}, "geometry": {"type": "Point", "coordinates": [147.86666009111053, -26.888372316597817]}}, {"type": "Feature", "properties": {"norad_id": 34005, "name": "COSMOS 2251 DEB", "group": "cosmos-2251-debris", "lat": -46.1160500554422, "lon": 57.26919704350958, "alt_km": 768.9913382193308, "timestamp": "2025-12-09T07:41:33.604924+00:00", "meta": {"OBJECT_NAME": "COSMOS 2251 DEB", "OBJECT_ID": "1993-036GQ", "EPOCH": "2025-12-08T19:20:38.642784", "MEAN_MOTION": 14.40300566, "ECCENTRICITY": 0.00206999, "INCLINATION": 74.0449, "RA_OF_ASC_NODE": 220.9149, "ARG_OF_PERICENTER": 339.7729, "MEAN_ANOMALY": 102.1513, "EPHEMERIS_TYPE": 0, "CLASSIFICATION_TYPE": "U", "NORAD_CAT_ID": 34005, "ELEMENT_SET_NO": 999, "REV_AT_EPOCH": 88322, "BSTAR": 0.00021153014, "MEAN_MOTION_DOT": 6.45e-06, "MEAN_MOTION_DDOT": 0}, "tle": {"line1": "1 34005U 93036GQ  25342.80600281  .00000645  00000+0  21153-3 0  9993", "line2": "2 34005  74.0449 220.9149 0020699 339.7729 102.1513 14.40300566883220"}}, "geometry": {"type": "Point", "coordinates": [57.26919704350958, -46.1160500554422]}}, {"type": "Feature", "properties": {"norad_id": 34006, "name": "COSMOS 2251 DEB", "group": "cosmos-2251-debris", "lat": -6.717139980072817, "lon": -27.901773752299462, "alt_km": 587.1981553963888, "timestamp": "2025-12-09T07:41:33.604935+00:00", "meta": {"OBJECT_NAME": "COSMOS 2251 DEB", "OBJECT_ID": "1993-036GR", "EPOCH": "2025-12-08T05:56:44.562336", "MEAN_MOTION": 14.94253736, "ECCENTRICITY": 0.00116603, "INCLINATION": 74.0536, "RA_OF_ASC_NODE": 152.3261, "ARG_OF_PERICENTER": 104.3242, "MEAN_ANOMALY": 73.8105, "EPHEMERIS_TYPE": 0, "CLASSIFICATION_TYPE": "U", "NORAD_CAT_ID": 34006, "ELEMENT_SET_NO": 999, "REV_AT_EPOCH": 88601, "BSTAR": 0.0040023646, "MEAN_MOTION_DOT": 0.00043241, "MEAN_MOTION_DDOT": 0}, "tle": {"line1": "1 34006U 93036GR  25342.24773799  .00043241  00000+0  40024-2 0  9993", "line2": "2 34006  74.0536 152.3261 0011660 104.3242  73.8105 14.94253736886011"}}, "geometry": {"type": "Point", "coordinates": [-27.901773752299462, -6.717139980072817]}}, {"type": "Feature", "properties": {"norad_id": 34007, "name": "COSMOS 2251 DEB", "group": "cosmos-2251-debris", "lat": 46.81705386792417, "lon": 155.69958082105907, "alt_km": 642.0402973417658, "timestamp": "2025-12-09T07:41:33.604946+00:00", "meta": {"OBJECT_NAME": "COSMOS 2251 DEB", "OBJECT_ID": "1993-036GS", "EPOCH": "2025-12-08T17:59:12.799680", "MEAN_MOTION": 14.64743596, "ECCENTRICITY": 0.00444613, "INCLINATION": 74.0194, "RA_OF_ASC_NODE": 354.5773, "ARG_OF_PERICENTER": 130.8247, "MEAN_ANOMALY": 229.679, "EPHEMERIS_TYPE": 0, "CLASSIFICATION_TYPE": "U", "NORAD_CAT_ID": 34007, "ELEMENT_SET_NO": 999, "REV_AT_EPOCH": 89021, "BSTAR": 0.0010987448, "MEAN_MOTION_DOT": 5.913e-05, "MEAN_MOTION_DDOT": 0}, "tle": {"line1": "1 34007U 93036GS  25342.74945370  .00005913  00000+0  10987-2 0  9994", "line2": "2 34007  74.0194 354.5773 0044461 130.8247 229.6790 14.64743596890213"}}, "geometry": {"type": "Point", "coordinates": [155.69958082105907, 46.81705386792417]}}, {"type": "Feature", "properties": {"norad_id": 34008, "name": "COSMOS 2251 DEB", "group": "cosmos-2251-debris", "lat": -41.31636127643828, "lon": 171.34310470288568, "alt_km": 793.1545461512142, "timestamp": "2025-12-09T07:41:33.604956+00:00", "meta": {"OBJECT_NAME": "COSMOS 2251 DEB", "OBJECT_ID": "1993-036GT", "EPOCH": "2025-12-09T00:15:11.659968", "MEAN_MOTION": 14.33141942, "ECCENTRICITY": 0.00241898, "INCLINATION": 74.0341, "RA_OF_ASC_NODE": 337.334, "ARG_OF_PERICENTER": 333.2621, "MEAN_ANOMALY": 91.6602, "EPHEMERIS_TYPE": 0, "CLASSIFICATION_TYPE": "U", "NORAD_CAT_ID": 34008, "ELEMENT_SET_NO": 999, "REV_AT_EPOCH": 87911, "BSTAR": 0.00018843937, "MEAN_MOTION_DOT": 4.93e-06, "MEAN_MOTION_DDOT": 0}, "tle": {"line1": "1 34008U 93036GT  25343.01055162  .00000493  00000+0  18844-3 0  9996", "line2": "2 34008  74.0341 337.3340 0024189 333.2621  91.6602 14.33141942879115"}}, "geometry": {"type": "Point", "coordinates": [171.34310470288568, -41.31636127643828]}}, {"type": "Feature", "properties": {"norad_id": 34009, "name": "COSMOS 2251 DEB", "group": "cosmos-2251-debris", "lat": -70.38961387387741, "lon": -143.36099229615584, "alt_km": 805.107059507518, "timestamp": "2025-12-09T07:41:33.604967+00:00", "meta": {"OBJECT_NAME": "COSMOS 2251 DEB", "OBJECT_ID": "1993-036GU", "EPOCH": "2025-12-08T17:54:38.020896", "MEAN_MOTION": 14.33217854, "ECCENTRICITY": 0.00263814, "INCLINATION": 74.037, "RA_OF_ASC_NODE": 344.2349, "ARG_OF_PERICENTER": 55.1474, "MEAN_ANOMALY": 121.6978, "EPHEMERIS_TYPE": 0, "CLASSIFICATION_TYPE": "U", "NORAD_CAT_ID": 34009, "ELEMENT_SET_NO": 999, "REV_AT_EPOCH": 87888, "BSTAR": 0.00026328723, "MEAN_MOTION_DOT": 7.01e-06, "MEAN_MOTION_DDOT": 0}, "tle": {"line1": "1 34009U 93036GU  25342.74627339  .00000701  00000+0  26329-3 0  9996", "line2": "2 34009  74.0370 344.2349 0026381  55.1474 121.6978 14.33217854878885"}}, "geometry": {"type": "Point", "coordinates": [-143.36099229615584, -70.38961387387741]}}, {"type": "Feature", "properties": {"norad_id": 34010, "name": "COSMOS 2251 DEB", "group": "cosmos-2251-debris", "lat": 13.528541560153625, "lon": 106.51403869866783, "alt_km": 514.3373348115738, "timestamp": "2025-12-09T07:41:33.604978+00:00", "meta": {"OBJECT_NAME": "COSMOS 2251 DEB", "OBJECT_ID": "1993-036GV", "EPOCH": "2025-12-08T23:03:16.835328", "MEAN_MOTION": 15.1762284, "ECCENTRICITY": 0.00047279, "INCLINATION": 73.9985, "RA_OF_ASC_NODE": 291.2264, "ARG_OF_PERICENTER": 63.4036, "MEAN_ANOMALY": 296.7644, "EPHEMERIS_TYPE": 0, "CLASSIFICATION_TYPE": "U", "NORAD_CAT_ID": 34010, "ELEMENT_SET_NO": 999, "REV_AT_EPOCH": 89228, "BSTAR": 0.005074874, "MEAN_MOTION_DOT": 0.00103581, "MEAN_MOTION_DDOT": 0}, "tle": {"line1": "1 34010U 93036GV  25342.96061152  .00103581  00000+0  50749-2 0  9999", "line2": "2 34010  73.9985 291.2264 0004727  63.4036 296.7644 15.17622840892282"}}, "geometry": {"type": "Point", "coordinates": [106.51403869866783, 13.528541560153625]}}, {"type": "Feature", "properties": {"norad_id": 34011, "name": "COSMOS 2251 DEB", "group": "cosmos-2251-debris", "lat": 19.788485457309726, "lon": 150.57496325936177, "alt_km": 755.8739292990467, "timestamp": "2025-12-09T07:41:33.604990+00:00", "meta": {"OBJECT_NAME": "COSMOS 2251 DEB", "OBJECT_ID": "1993-036GW", "EPOCH": "2025-12-08T09:18:38.529216", "MEAN_MOTION": 14.41737807, "ECCENTRICITY": 0.00353193, "INCLINATION": 74.0153, "RA_OF_ASC_NODE": 338.2241, "ARG_OF_PERICENTER": 63.2584, "MEAN_ANOMALY": 297.2179, "EPHEMERIS_TYPE": 0, "CLASSIFICATION_TYPE": "U", "NORAD_CAT_ID": 34011, "ELEMENT_SET_NO": 999, "REV_AT_EPOCH": 87853, "BSTAR": 0.0012294556, "MEAN_MOTION_DOT": 4.018e-05, "MEAN_MOTION_DDOT": 0}, "tle": {"line1": "1 34011U 93036GW  25342.38794594  .00004018  00000+0  12295-2 0  9998", "line2": "2 34011  74.0153 338.2241 0035319  63.2584 297.2179 14.41737807878533"}}, "geometry": {"type": "Point", "coordinates": [150.57496325936177, 19.788485457309726]}}]}